{
  "norad_id": 54170,
  "name": "STARLINK-5155",
  "history": [
    {
      "epoch": "2026-04-15T13:32:05.671392Z",
      "apogee_km": 540.5569809422641,
      "perigee_km": 538.9478798607533,
      "latitude_deg": -4.399773563099854e-06,
      "longitude_deg": 151.88985098190884,
      "height_km": 540.7085097933071,
      "semi_major_axis_km": 6917.889430401508,
      "eccentricity": 0.0001163,
      "inclination_deg": 53.2182,
      "raan_deg": 198.6377,
      "arg_perigee_deg": 94.2779,
      "mean_anomaly_deg": 265.8346,
      "mean_motion_rev_day": 15.08837042
    },
    {
      "epoch": "2026-04-16T18:09:01.817856Z",
      "apogee_km": 540.4644855414126,
      "perigee_km": 539.0186489208618,
      "latitude_deg": -4.317492261211886e-05,
      "longitude_deg": 76.12738007566853,
      "height_km": 540.5842334865481,
      "semi_major_axis_km": 6917.878567231137,
      "eccentricity": 0.0001045,
      "inclination_deg": 53.2172,
      "raan_deg": 193.2844,
      "arg_perigee_deg": 85.7591,
      "mean_anomaly_deg": 274.352,
      "mean_motion_rev_day": 15.08840596
    },
    {
      "epoch": "2026-04-17T11:38:16.601568Z",
      "apogee_km": 540.4525103891328,
      "perigee_km": 539.0368350836234,
      "latitude_deg": -1.5487364748346933e-05,
      "longitude_deg": 169.82681924595605,
      "height_km": 540.6026250157224,
      "semi_major_axis_km": 6917.881672736377,
      "eccentricity": 0.00010232,
      "inclination_deg": 53.2167,
      "raan_deg": 190.0136,
      "arg_perigee_deg": 86.911,
      "mean_anomaly_deg": 273.1999,
      "mean_motion_rev_day": 15.0883958
    },
    {
      "epoch": "2026-04-18T11:29:03.288192Z",
      "apogee_km": 540.4394961369953,
      "perigee_km": 539.022578405601,
      "latitude_deg": -2.1287782231672446e-05,
      "longitude_deg": 166.69245510767618,
      "height_km": 540.5857638153526,
      "semi_major_axis_km": 6917.868037271298,
      "eccentricity": 0.00010241,
      "inclination_deg": 53.2165,
      "raan_deg": 185.5531,
      "arg_perigee_deg": 86.654,
      "mean_anomaly_deg": 273.4569,
      "mean_motion_rev_day": 15.08844041
    },
    {
      "epoch": "2026-04-19T11:19:50.121696Z",
      "apogee_km": 540.4807973062843,
      "perigee_km": 538.9881973520205,
      "latitude_deg": -1.4191560423838721e-05,
      "longitude_deg": 163.55838569311186,
      "height_km": 540.5599330823987,
      "semi_major_axis_km": 6917.871497329152,
      "eccentricity": 0.00010788,
      "inclination_deg": 53.217,
      "raan_deg": 181.0935,
      "arg_perigee_deg": 84.5699,
      "mean_anomaly_deg": 275.5416,
      "mean_motion_rev_day": 15.08842909
    },
    {
      "epoch": "2026-04-20T09:35:15.140256Z",
      "apogee_km": 540.5221098085667,
      "perigee_km": 539.0206469741215,
      "latitude_deg": -3.4667746988282263e-05,
      "longitude_deg": -175.3735355195803,
      "height_km": 540.6490852709071,
      "semi_major_axis_km": 6917.908378391344,
      "eccentricity": 0.00010852,
      "inclination_deg": 53.2166,
      "raan_deg": 176.9299,
      "arg_perigee_deg": 88.6038,
      "mean_anomaly_deg": 271.5078,
      "mean_motion_rev_day": 15.08830843
    },
    {
      "epoch": "2026-04-21T20:33:44.347392Z",
      "apogee_km": 540.5416612547333,
      "perigee_km": 538.9963394123797,
      "latitude_deg": -1.2833213156800101e-05,
      "longitude_deg": 12.025217578441763,
      "height_km": 540.572079949986,
      "semi_major_axis_km": 6917.906000333556,
      "eccentricity": 0.00011169,
      "inclination_deg": 53.2172,
      "raan_deg": 170.3867,
      "arg_perigee_deg": 83.0907,
      "mean_anomaly_deg": 277.0212,
      "mean_motion_rev_day": 15.08831621
    },
    {
      "epoch": "2026-04-23T07:32:13.697952Z",
      "apogee_km": 540.525547704352,
      "perigee_km": 538.9899134320603,
      "latitude_deg": -1.2330305582323233e-05,
      "longitude_deg": -160.5740442125644,
      "height_km": 540.5516637850897,
      "semi_major_axis_km": 6917.894730568206,
      "eccentricity": 0.00011099,
      "inclination_deg": 53.2169,
      "raan_deg": 163.8461,
      "arg_perigee_deg": 82.3602,
      "mean_anomaly_deg": 277.7516,
      "mean_motion_rev_day": 15.08835308
    },
    {
      "epoch": "2026-04-24T10:33:46.662624Z",
      "apogee_km": 540.4382257670086,
      "perigee_km": 539.039431274482,
      "latitude_deg": -6.410850231142013e-06,
      "longitude_deg": 147.87389464015064,
      "height_km": 540.5100191168601,
      "semi_major_axis_km": 6917.875828520745,
      "eccentricity": 0.0001011,
      "inclination_deg": 53.2167,
      "raan_deg": 158.7913,
      "arg_perigee_deg": 79.7093,
      "mean_anomaly_deg": 280.4013,
      "mean_motion_rev_day": 15.08841492
    },
    {
      "epoch": "2026-04-25T11:59:56.513760Z",
      "apogee_km": 540.4359677512784,
      "perigee_km": 539.0219559486768,
      "latitude_deg": -2.747221097664899e-06,
      "longitude_deg": 120.529528164353,
      "height_km": 540.4898362807025,
      "semi_major_axis_km": 6917.865961849978,
      "eccentricity": 0.0001022,
      "inclination_deg": 53.2161,
      "raan_deg": 154.0326,
      "arg_perigee_deg": 78.9768,
      "mean_anomaly_deg": 281.1339,
      "mean_motion_rev_day": 15.0884472
    },
    {
      "epoch": "2026-04-26T19:47:39.556896Z",
      "apogee_km": 540.4707599044114,
      "perigee_km": 539.0180048141165,
      "latitude_deg": 1.4454718241619226e-05,
      "longitude_deg": -3.652191167298717,
      "height_km": 540.4647165500057,
      "semi_major_axis_km": 6917.881382359264,
      "eccentricity": 0.000105,
      "inclination_deg": 53.2164,
      "raan_deg": 148.086,
      "arg_perigee_deg": 75.9996,
      "mean_anomaly_deg": 284.1113,
      "mean_motion_rev_day": 15.08839675
    },
    {
      "epoch": "2026-04-27T08:30:44.542944Z",
      "apogee_km": 540.5568314224238,
      "perigee_km": 538.9242123272606,
      "latitude_deg": 7.995523749776151e-06,
      "longitude_deg": 162.6747173958438,
      "height_km": 540.5721975463235,
      "semi_major_axis_km": 6917.8775218748415,
      "eccentricity": 0.000118,
      "inclination_deg": 53.2163,
      "raan_deg": 145.706,
      "arg_perigee_deg": 85.4916,
      "mean_anomaly_deg": 274.6211,
      "mean_motion_rev_day": 15.08840938
    },
    {
      "epoch": "2026-04-28T17:53:50.879328Z",
      "apogee_km": 540.5597967229533,
      "perigee_km": 538.9548452404852,
      "latitude_deg": 4.23071018298047e-05,
      "longitude_deg": 14.283665298710995,
      "height_km": 540.4698082049838,
      "semi_major_axis_km": 6917.894320981719,
      "eccentricity": 0.000116,
      "inclination_deg": 53.2162,
      "raan_deg": 139.4624,
      "arg_perigee_deg": 76.7885,
      "mean_anomaly_deg": 283.3237,
      "mean_motion_rev_day": 15.08835442
    },
    {
      "epoch": "2026-04-29T11:23:05.566272Z",
      "apogee_km": 540.5928946210479,
      "perigee_km": 538.9165510987659,
      "latitude_deg": -2.5030884067337172e-05,
      "longitude_deg": 107.98353739670571,
      "height_km": 540.4609609774924,
      "semi_major_axis_km": 6917.891722859907,
      "eccentricity": 0.00012116,
      "inclination_deg": 53.2167,
      "raan_deg": 136.1917,
      "arg_perigee_deg": 76.9229,
      "mean_anomaly_deg": 283.1898,
      "mean_motion_rev_day": 15.08836292
    }
  ]
}